TRANSIT 5B-5 (OPS 6582) 
1 00965U 64083D   19088.32621150  .00000039  00000-0  41615-4 0  9990
2 00965  90.0201 192.7024 0042343  68.2303 350.3386 13.56727355686155
OSCAR 7 (AO-7)          
1 07530U 74089B   19088.54800341 -.00000022  00000-0  14148-3 0  9990
2 07530 101.7348  57.0716 0012308 142.2946 284.0439 12.53637334 30111
UOSAT 2 (UO-11)         
1 14781U 84021B   19088.60282454  .00000058  00000-0  13272-4 0  9995
2 14781  97.6194 117.1206 0007530 217.8744 142.1942 14.83072163865743
NOAA 9                  
1 15427U 84123A   19088.47838642  .00000013  00000-0  29070-4 0  9991
2 15427  98.8838  37.5918 0013776 266.5553 200.8432 14.16063136770402
LUSAT (LO-19)           
1 20442U 90005G   19088.32037287  .00000002  00000-0  16993-4 0  9998
2 20442  98.6414  30.4902 0012436  34.0062 326.1916 14.32920674524664
ITAMSAT (IO-26)         
1 22826U 93061D   19088.49890156  .00000005  00000-0  19972-4 0  9994
2 22826  98.8924  75.3068 0008188 219.2849 140.7739 14.30387407330544
RADIO ROSTO (RS-15)     
1 23439U 94085A   19088.54169296 -.00000029  00000-0  38697-3 0  9993
2 23439  64.8146 247.3536 0148105 128.8167 232.6086 11.27568255998740
JAS-2 (FO-29)           
1 24278U 96046B   19088.43422496 -.00000024  00000-0  82427-5 0  9993
2 24278  98.5248 252.9166 0351369  90.7902 273.3506 13.53090104116567
NOAA 15                 
1 25338U 98030A   19088.57995971  .00000020  00000-0  27205-4 0  9991
2 25338  98.7542 109.9634 0011513 116.6987 243.5373 14.25899685 85433
TECHSAT 1B (GO-32)      
1 25397U 98043D   19088.44492010 -.00000016  00000-0  11992-4 0  9994
2 25397  98.6817  29.6051 0000170 302.1825  57.9337 14.23662449 76311
ISS (ZARYA)             
1 25544U 98067A   19089.55138889  .00002167  00000-0  42293-4 0  9994
2 25544  51.6429  32.1304 0002448 131.8282 202.6721 15.52459091163039
ORSTED                  
1 25635U 99008B   19088.56198946  .00000055  00000-0  20997-4 0  9992
2 25635  96.4727 211.6993 0137906 333.5159  25.9035 14.48137084 60082
PCSAT (NO-44)           
1 26931U 01043C   19088.60963901 -.00000031  00000-0  19926-4 0  9995
2 26931  67.0513 212.9084 0005581 276.3140  83.7325 14.30536464913303
SAUDISAT 1C (SO-50)     
1 27607U 02058C   19088.55524813 -.00000026  00000-0  17258-4 0  9992
2 27607  64.5542 297.6586 0082377 271.9739  87.1931 14.75530276874938
CUTE-1 (CO-55)          
1 27844U 03031E   19088.60443319  .00000048  00000-0  41191-4 0  9990
2 27844  98.6867  98.0212 0008651 265.2318  94.7872 14.22166947816723
CUBESAT XI-IV (CO-57)   
1 27848U 03031J   19088.57352911  .00000031  00000-0  34138-4 0  9992
2 27848  98.6947  98.4722 0008540 277.8785  82.1423 14.21763578816589
MOZHAYETS 4 (RS-22)     
1 27939U 03042A   19088.52796423  .00000103  00000-0  27024-4 0  9996
2 27939  98.0257 225.9896 0011951 329.9172  30.1344 14.66763595828649
INMARSAT 4-F1           
1 28628U 05009A   19088.57966748 -.00000277  00000-0  00000-0 0  9995
2 28628   2.9731  21.4182 0003454   8.1353 149.2872  1.00271774 51237
NOAA 18                 
1 28654U 05018A   19088.59574137  .00000037  00000-0  45015-4 0  9995
2 28654  99.1071 134.3081 0014889  49.2323 311.0137 14.12412098713972
CUBESAT XI 5            
1 28895U 05043F   19088.56654463  .00000126  00000-0  33132-4 0  9994
2 28895  97.9453 234.1391 0015596 245.5406 114.4171 14.63642429715380
METOP-A                 
1 29499U 06044A   19088.61073413 -.00000022  00000-0  96483-5 0  9998
2 29499  98.5850 144.0624 0002117  98.7721  28.9483 14.21545123645362
CARTOSAT-2 (IRS-P7)     
1 29710U 07001B   19088.48311846  .00000306  00000-0  48832-4 0  9996
2 29710  97.9826 148.2426 0001632 103.8876 256.2510 14.78655938659292
FALCONSAT 3             
1 30776U 07006E   19087.46717981  .00002668  00000-0  76200-4 0  9995
2 30776  35.4345 255.3057 0001784  77.7917 282.3009 15.35800964668032
CAPE1                   
1 31130U 07012P   19088.42824942  .00000125  00000-0  37169-4 0  9997
2 31130  98.1561  30.2880 0095788 340.9593  18.8034 14.56396279633885
CARTOSAT-2A             
1 32783U 08021A   19088.46155637  .00000029  00000-0  11146-4 0  9995
2 32783  97.9816 148.5937 0013108  18.4713 341.6976 14.78658101589233
CUTE-1.7+APD II (CO-65) 
1 32785U 08021C   19088.46831531  .00000191  00000-0  26277-4 0  9992
2 32785  97.5496  92.0182 0013404 165.7190 194.4409 14.88269140591537
COMPASS-1               
1 32787U 08021E   19088.53049157  .00000519  00000-0  54652-4 0  9999
2 32787  97.5122 104.0784 0013885 121.2355 239.0227 14.93288406592481
AAUSAT-II (CUBESAT-2)   
1 32788U 08021F   19088.57871632  .00000341  00000-0  36408-4 0  9997
2 32788  97.5027 107.8790 0013398 110.1708 250.0956 14.94638501592705
DELFI-C3 (DO-64)        
1 32789U 08021G   19088.60369822  .00001046  00000-0  74272-4 0  9999
2 32789  97.4746 140.6840 0013344  49.3872 310.8514 15.06750413594652
SEEDS II (CO-66)        
1 32791U 08021J   19088.48872775  .00000310  00000-0  36897-4 0  9998
2 32791  97.5304  97.9177 0014337 143.0679 217.1530 14.90761209591935
YUBILEINY (RS-30)       
1 32953U 08025A   19088.51667139  .00000020  00000-0  75656-4 0  9996
2 32953  82.5069 195.2335 0017885 307.8575  52.0886 12.43088269492227
FENGYUN 3A              
1 32958U 08026A   19088.52293901 -.00000030  00000-0  52869-5 0  9999
2 32958  98.3802  93.1978 0008242 181.4514 178.6641 14.18598322561600
PRISM (HITOMI)          
1 33493U 09002B   19088.56262165  .00000388  00000-0  39611-4 0  9995
2 33493  98.1221   6.4449 0016356  91.5240 268.7854 14.96552668553001
STARS                   
1 33498U 09002G   19088.57093369  .00000163  00000-0  29701-4 0  9999
2 33498  98.3163 295.0725 0012219  70.5933 289.6597 14.78950580548012
KKS-1 (KISEKI)          
1 33499U 09002H   19088.56509974  .00000093  00000-0  21730-4 0  9999
2 33499  98.3549 284.6588 0010451 103.2434 256.9940 14.75417634546830
NOAA 19                 
1 33591U 09005A   19088.57382039  .00000028  00000-0  40665-4 0  9993
2 33591  99.1759  77.7530 0013050 244.3930 115.5893 14.12341364522196
SWISSCUBE               
1 35932U 09051B   19088.45194768  .00000114  00000-0  36746-4 0  9993
2 35932  98.5780 252.0863 0008557  60.5439 299.6611 14.56256974504955
BEESAT                  
1 35933U 09051C   19088.52869014  .00000087  00000-0  30715-4 0  9994
2 35933  98.5814 253.8826 0006918  72.8661 287.3293 14.56349612504990
ITUPSAT 1               
1 35935U 09051E   19088.40218785  .00000080  00000-0  29493-4 0  9990
2 35935  98.5925 253.9955 0009198  68.9910 291.2269 14.55513351504781
XIWANG-1 (HO-68)        
1 36122U 09072B   19088.41070822 -.00000047  00000-0 -12820-4 0  9992
2 36122 100.0755  94.6136 0007898 167.8837 192.2468 13.16348850446189
CARTOSAT-2B             
1 36795U 10035A   19088.43056665 -.00001479  00000-0 -19442-3 0  9996
2 36795  97.9798 148.2286 0016050  83.8682 276.4317 14.78641672470275
TISAT 1                 
1 36799U 10035E   19088.41589190  .00000428  00000-0  49316-4 0  9997
2 36799  98.1430 237.9316 0012027 359.1728   0.9467 14.91036424472653
FENGYUN 3B (FENG-YUN-3B)
1 37214U 10059A   19088.52740688 -.00000006  00000-0  19973-4 0  9998
2 37214  98.9910  59.7983 0018185  90.5157 269.8102 14.15910261434577
JUGNU                   
1 37839U 11058B   19088.45010428  .00000309  00000-0  23043-4 0  9993
2 37839  19.9607 107.4310 0019012 150.5165 357.6474 14.12645576385751
SRMSAT                  
1 37841U 11058D   19088.51892426  .00000290  00000-0  14322-4 0  9998
2 37841  19.9709 162.1119 0012091  25.9371  95.9661 14.10627504385126
M-CUBED & EXP-1 PRIME   
1 37855U 11061F   19088.57555998  .00000734  00000-0  45082-4 0  9993
2 37855 101.7264 302.4929 0174146 317.2448  41.5324 15.05221583404102
ALMASAT-1               
1 38078U 12006B   19088.56438302  .00038509  42916-5  25130-3 0  9998
2 38078  69.4275 137.6109 0181903  27.7879  84.7859 15.56823613384837
HORYU 2                 
1 38340U 12025D   19088.61637242  .00000129  00000-0  26972-4 0  9997
2 38340  98.3391 124.7330 0011985  29.0154 331.1718 14.75684026358797
METOP-B                 
1 38771U 12049A   19088.59075510 -.00000011  00000-0  15011-4 0  9995
2 38771  98.7132 149.0139 0001479 142.7619 346.2901 14.21483975338683
SARAL                   
1 39086U 13009A   19088.60685205 -.00000002  00000-0  15639-4 0  9998
2 39086  98.5417 276.0504 0002096 111.3755 248.7652 14.32034309318191
AAUSAT3                 
1 39087U 13009B   19088.50051014  .00000065  00000-0  37424-4 0  9997
2 39087  98.4952 296.1186 0012659 164.1997 195.9589 14.35705683318829
STRAND-1                
1 39090U 13009E   19088.55937887  .00000026  00000-0  24351-4 0  9999
2 39090  98.4969 295.8393 0009409 163.1476 197.0024 14.35075721318737
BRITE-AUSTRIA           
1 39091U 13009F   19088.62299487  .00000005  00000-0  17008-4 0  9993
2 39091  98.4946 295.1108 0010644 170.9177 189.2202 14.35103710318772
UNIBRITE (CANX-3A)      
1 39092U 13009G   19088.53992477 -.00000005  00000-0  13368-4 0  9999
2 39092  98.4963 294.6850 0009629 164.5484 195.5997 14.34976881318734
SOMP                    
1 39134U 13015E   19088.56752680  .00000993  00000-0  55204-4 0  9996
2 39134  64.8623 283.2210 0023316 315.8017  44.1247 15.19931060328267
BEESAT-3                
1 39135U 13015F   19088.01703121  .00000605  00000-0  40039-4 0  9993
2 39135  64.8672 302.1785 0010307 304.8015  55.2141 15.17280335327469
BEESAT-2                
1 39136U 13015G   19088.02383408  .00000546  00000-0  37631-4 0  9995
2 39136  64.8690 305.7285 0011714 299.7893  60.2067 15.16724254327783
NEE-01 PEGASUS (NEE-01) 
1 39151U 13018B   19088.48258818  .00000132  00000-0  24402-4 0  9994
2 39151  97.9684 185.5152 0018497 104.3625 255.9642 14.80014498319714
CUBEBUG-1 (CAPITAN BETO)
1 39153U 13018D   19088.52778588  .00000167  00000-0  28697-4 0  9990
2 39153  97.9741 187.1343 0018380 101.2856 259.0422 14.80530973319816
ESTCUBE 1               
1 39161U 13021C   19088.23021379  .00000086  00000-0  21487-4 0  9990
2 39161  97.9888 174.5295 0008643 221.6719 138.3829 14.72172279316380
